NORAD_CAT_ID,OBJECT_NAME,OBJECT_TYPE,EPOCH,MEAN_MOTION,ECCENTRICITY,INCLINATION,RA_OF_ASC_NODE,ARG_OF_PERICENTER,MEAN_ANOMALY,BSTAR,MEAN_MOTION_DOT,MEAN_MOTION_DDOT,TLE_LINE0,TLE_LINE1,TLE_LINE2,SEMIMAJOR_AXIS,PERIOD,APOGEE,PERIGEE,DECAYED
55785.0,STARLINK-5818,PAYLOAD,2023-06-22 22:28:21,15.69925684,0.0003513,69.9986,202.6073,266.581,93.4983,1.4302e-05,1.507e-05,0.0,0 STARLINK-5818,1 55785U 23028AW  23173.93635664  .00001507  00000-0  14302-4 0  9990,2 55785  69.9986 202.6073 0003513 266.5810  93.4983 15.69925684 18111,6737.247,91.724,361.478,356.745,0.0
55785.0,STARLINK-5818,PAYLOAD,2023-06-23 09:11:12,15.69467668,0.000177,69.9994,201.3575,233.0171,127.0862,-0.00049848,-0.00058604,0.0,0 STARLINK-5818,1 55785U 23028AW  23174.38278171 -.00058604  00000-0 -49848-3 0  9990,2 55785  69.9994 201.3575 0001770 233.0171 127.0862 15.69467668 18185,6738.557,91.751,361.615,359.23,0.0
55785.0,STARLINK-5818,PAYLOAD,2023-06-24 09:38:39,15.69907215,0.0003436,69.9983,198.488,258.8922,101.1887,2.6805e-05,3.009e-05,0.0,0 STARLINK-5818,1 55785U 23028AW  23175.40185164  .00003009  00000-0  26805-4 0  9999,2 55785  69.9983 198.4880 0003436 258.8922 101.1887 15.69907215 18343,6737.299,91.725,361.479,356.85,0.0
55785.0,STARLINK-5818,PAYLOAD,2023-06-24 11:10:24,15.6991962,0.0003399,69.9983,198.3086,266.2219,93.8588,1.5984e-05,1.709e-05,0.0,0 STARLINK-5818,1 55785U 23028AW  23175.46556278  .00001709  00000-0  15984-4 0  9994,2 55785  69.9983 198.3086 0003399 266.2219  93.8588 15.69919620 18359,6737.264,91.724,361.419,356.839,0.0
55785.0,STARLINK-5818,PAYLOAD,2023-06-25 13:12:46,15.67725459,0.0010774,69.9979,195.2708,182.4205,177.694,-0.0025881,-0.00276383,0.0,0 STARLINK-5818,1 55785U 23028AW  23176.55053428 -.00276383  00000-0 -25881-2 0  9993,2 55785  69.9979 195.2708 0010774 182.4205 177.6940 15.67725459 18525,6743.549,91.853,372.679,358.148,0.0
55785.0,STARLINK-5818,PAYLOAD,2023-06-26 06:00:00,15.69944574,0.0003586,70.0011,193.2912,270.9947,91.234,-0.00039957,-0.00048027,0.0,0 STARLINK-5818,1 55785U 23028AW  23177.25001157 -.00048027  00000-0 -39957-3 0  9995,2 55785  70.0011 193.2912 0003586 270.9947  91.2340 15.69944574 18639,6737.193,91.723,361.474,356.642,0.0
55785.0,STARLINK-5818,PAYLOAD,2023-06-26 09:02:58,15.69931826,0.0003538,69.9978,192.934,268.6842,91.3948,-3.2036e-06,-5.98e-06,0.0,0 STARLINK-5818,1 55785U 23028AW  23177.37706168 -.00000598  00000-0 -32036-5 0  9996,2 55785  69.9978 192.9340 0003538 268.6842  91.3948 15.69931826 18657,6737.229,91.724,361.478,356.71,0.0
55785.0,STARLINK-5818,PAYLOAD,2023-06-26 16:41:44,15.69921905,0.0003523,69.9979,192.0383,267.8537,92.2255,-2.8681e-06,-5.58e-06,0.0,0 STARLINK-5818,1 55785U 23028AW  23177.69565053 -.00000558  00000-0 -28681-5 0  9994,2 55785  69.9979 192.0383 0003523 267.8537  92.2255 15.69921905 18706,6737.257,91.724,361.496,356.749,0.0
55785.0,STARLINK-5818,PAYLOAD,2023-06-27 09:31:00,15.69927185,0.0003548,69.9978,190.0681,269.7587,90.3202,1.0181e-05,1.012e-05,0.0,0 STARLINK-5818,1 55785U 23028AW  23178.39652883  .00001012  00000-0  10181-4 0  9999,2 55785  69.9978 190.0681 0003548 269.7587  90.3202 15.69927185 18816,6737.242,91.724,361.498,356.717,0.0
55785.0,STARLINK-5818,PAYLOAD,2023-06-28 00:48:31,15.69921425,0.0003784,69.9977,188.2777,278.4802,81.5965,1.106e-05,1.117e-05,0.0,0 STARLINK-5818,1 55785U 23028AW  23179.03369925  .00001117  00000-0  11060-4 0  9996,2 55785  69.9977 188.2777 0003784 278.4802  81.5965 15.69921425 18919,6737.259,91.724,361.673,356.574,0.0
55785.0,STARLINK-5818,PAYLOAD,2023-06-29 22:00:00,15.69891277,0.0003519,69.9994,182.9826,263.0264,295.9124,0.00059625,0.00072003,0.0,0 STARLINK-5818,1 55785U 23028AW  23180.91667824  .00072003  00000-0  59625-3 0  9994,2 55785  69.9994 182.9826 0003519 263.0264 295.9124 15.69891277 19204,6737.345,91.726,361.581,356.839,0.0
55785.0,STARLINK-5818,PAYLOAD,2023-07-01 02:12:38,15.69916384,0.0003638,69.9979,179.6777,268.7439,91.334,-5.9839e-07,-2.85e-06,0.0,0 STARLINK-5818,1 55785U 23028AW  23182.09210842 -.00000285  00000-0 -59839-6 0  9994,2 55785  69.9979 179.6777 0003638 268.7439  91.3340 15.69916384 19398,6737.273,91.725,361.589,356.687,0.0
55785.0,STARLINK-5818,PAYLOAD,2023-07-01 08:19:37,15.69929135,0.0002856,69.9981,178.9618,272.5607,87.5261,1.1717e-05,1.197e-05,0.0,0 STARLINK-5818,1 55785U 23028AW  23182.34696573  .00001197  00000-0  11717-4 0  9993,2 55785  69.9981 178.9618 0002856 272.5607  87.5261 15.69929135 19430,6737.237,91.724,361.026,357.178,0.0
55785.0,STARLINK-5818,PAYLOAD,2023-07-01 17:30:09,15.69916494,0.0003806,69.9959,177.8868,266.7989,93.2772,-5.4613e-06,-8.7e-06,0.0,0 STARLINK-5818,1 55785U 23028AW  23182.72927553 -.00000870  00000-0 -54613-5 0  9992,2 55785  69.9959 177.8868 0003806 266.7989  93.2772 15.69916494 19495,6737.273,91.725,361.702,356.574,0.0
55785.0,STARLINK-5818,PAYLOAD,2023-07-02 01:08:54,15.69923605,0.000393,69.997,176.9921,273.0142,87.0604,2.038e-06,3.2e-07,0.0,0 STARLINK-5818,1 55785U 23028AW  23183.04785331  .00000032  00000-0  20380-5 0  9996,2 55785  69.9970 176.9921 0003930 273.0142  87.0604 15.69923605 19541,6737.253,91.724,361.765,356.47,0.0
55785.0,STARLINK-5818,PAYLOAD,2023-07-03 01:36:56,15.69917465,0.0003369,69.9984,174.1245,274.3534,85.7276,3.0961e-06,1.59e-06,0.0,0 STARLINK-5818,1 55785U 23028AW  23184.06732595  .00000159  00000-0  30961-5 0  9999,2 55785  69.9984 174.1245 0003369 274.3534  85.7276 15.69917465 19705,6737.27,91.725,361.405,356.865,0.0
55785.0,STARLINK-5818,PAYLOAD,2023-07-04 02:04:58,15.69924525,0.0003557,69.9984,171.259,271.9447,88.1341,-5.7489e-06,-9.04e-06,0.0,0 STARLINK-5818,1 55785U 23028AW  23185.08679095 -.00000904  00000-0 -57489-5 0  9991,2 55785  69.9984 171.2590 0003557 271.9447  88.1341 15.69924525 19863,6737.25,91.724,361.511,356.718,0.0
55785.0,STARLINK-5818,PAYLOAD,2023-07-04 09:43:43,15.69929779,0.000342,69.9982,170.3638,274.0515,86.0289,1.3157e-06,-5.5e-07,0.0,0 STARLINK-5818,1 55785U 23028AW  23185.40536927 -.00000055  00000-0  13157-5 0  9993,2 55785  69.9982 170.3638 0003420 274.0515  86.0289 15.69929779 19913,6737.235,91.724,361.404,356.796,0.0
55785.0,STARLINK-5818,PAYLOAD,2023-07-05 01:01:15,15.69919592,0.0003337,69.9981,168.5724,275.1615,84.92,2.0866e-06,3.8e-07,0.0,0 STARLINK-5818,1 55785U 23028AW  23186.04254314  .00000038  00000-0  20866-5 0  9996,2 55785  69.9981 168.5724 0003337 275.1615  84.9200 15.69919592 20012,6737.264,91.724,361.377,356.881,0.0
55785.0,STARLINK-5818,PAYLOAD,2023-07-05 16:18:46,15.69924138,0.0003429,69.9984,166.7811,271.0991,88.9811,1.1766e-05,1.202e-05,0.0,0 STARLINK-5818,1 55785U 23028AW  23186.67970591  .00001202  00000-0  11766-4 0  9999,2 55785  69.9984 166.7811 0003429 271.0991  88.9811 15.69924138 20111,6737.251,91.724,361.426,356.806,0.0
55785.0,STARLINK-5818,PAYLOAD,2023-07-07 05:00:49,15.69917792,0.000345,69.9992,162.4808,264.8887,95.1915,8.1119e-06,7.62e-06,0.0,0 STARLINK-5818,1 55785U 23028AW  23188.20891203  .00000762  00000-0  81119-5 0  9992,2 55785  69.9992 162.4808 0003450 264.8887  95.1915 15.69917792 20356,6737.269,91.725,361.459,356.81,0.0
55785.0,STARLINK-5818,PAYLOAD,2023-07-07 08:04:20,15.69910297,0.0003216,69.9977,162.1231,266.3905,93.6923,-9.1651e-06,-1.314e-05,0.0,0 STARLINK-5818,1 55785U 23028AW  23188.33635390 -.00001314  00000-0 -91651-5 0  9997,2 55785  69.9977 162.1231 0003216 266.3905  93.6923 15.69910297 20371,6737.291,91.725,361.322,356.989,0.0
55785.0,STARLINK-5818,PAYLOAD,2023-07-07 23:21:51,15.69921094,0.0003734,69.9988,160.3327,266.0807,93.9962,8.8857e-06,8.55e-06,0.0,0 STARLINK-5818,1 55785U 23028AW  23188.97351013  .00000855  00000-0  88857-5 0  9995,2 55785  69.9988 160.3327 0003734 266.0807  93.9962 15.69921094 20476,6737.26,91.724,361.64,356.609,0.0
55785.0,STARLINK-5818,PAYLOAD,2023-07-09 04:25:08,15.69922282,0.0003189,69.9975,156.9301,259.5655,100.5181,1.1921e-05,1.221e-05,0.0,0 STARLINK-5818,1 55785U 23028AW  23190.18412765  .00001221  00000-0  11921-4 0  9998,2 55785  69.9975 156.9301 0003189 259.5655 100.5181 15.69922282 20666,6737.256,91.724,361.27,356.973,0.0
55785.0,STARLINK-5818,PAYLOAD,2023-07-10 07:56:40,15.69935,0.000338,69.9974,153.7031,263.466,96.6151,-2.151e-06,-4.72e-06,0.0,0 STARLINK-5818,1 55785U 23028AW  23191.33102420 -.00000472  00000-0 -21510-5 0  9995,2 55785  69.9974 153.7031 0003380 263.4660  96.6151 15.69935000 20847,6737.22,91.724,361.362,356.808,0.0
55785.0,STARLINK-5818,PAYLOAD,2023-07-11 06:52:57,15.69927003,0.0003543,69.9977,151.0168,262.2658,97.8136,2.7869e-06,1.22e-06,0.0,0 STARLINK-5818,1 55785U 23028AW  23192.28677921  .00000122  00000-0  27869-5 0  9996,2 55785  69.9977 151.0168 0003543 262.2658  97.8136 15.69927003 20993,6737.243,91.724,361.495,356.721,0.0
55785.0,STARLINK-5818,PAYLOAD,2023-07-12 07:20:59,15.69925273,0.0003422,69.9976,148.1506,259.3029,100.7782,4.991e-06,3.87e-06,0.0,0 STARLINK-5818,1 55785U 23028AW  23193.30624658  .00000387  00000-0  49910-5 0  9993,2 55785  69.9976 148.1506 0003422 259.3029 100.7782 15.69925273 21157,6737.248,91.724,361.418,356.807,0.0
55785.0,STARLINK-5818,PAYLOAD,2023-07-13 07:49:00,15.69934897,0.0003539,69.998,145.2843,261.8005,98.2789,1.3222e-05,1.378e-05,0.0,0 STARLINK-5818,1 55785U 23028AW  23194.32570482  .00001378  00000-0  13222-4 0  9998,2 55785  69.9980 145.2843 0003539 261.8005  98.2789 15.69934897 21313,6737.22,91.724,361.47,356.701,0.0
55785.0,STARLINK-5818,PAYLOAD,2023-07-13 23:06:33,15.69917621,0.0002959,69.9991,143.4934,260.8591,99.227,-3.0647e-06,-5.81e-06,0.0,0 STARLINK-5818,1 55785U 23028AW  23194.96288855 -.00000581  00000-0 -30647-5 0  9996,2 55785  69.9991 143.4934 0002959 260.8591  99.2270 15.69917621 21413,6737.27,91.725,361.128,357.141,0.0
55785.0,STARLINK-5818,PAYLOAD,2023-07-14 06:45:18,15.69925438,0.0002944,69.999,142.5984,262.0344,98.0517,3.5483e-06,2.14e-06,0.0,0 STARLINK-5818,1 55785U 23028AW  23195.28146624  .00000214  00000-0  35483-5 0  9993,2 55785  69.9990 142.5984 0002944 262.0344  98.0517 15.69925438 21462,6737.247,91.724,361.096,357.129,0.0
